ONEWEB-0202             
1 48224U 21031Q   23235.09113253  .00000537  00000+0  14151-2 0  9994
2 48224  87.9039 134.5695 0003304  88.5156 271.6352 13.14502252113178
ONEWEB-0204             
1 48225U 21031R   23234.21166593 -.00000551  00000+0 -15211-2 0  9999
2 48225  87.9038 134.7562 0001408  65.8888 294.2389 13.14502308112954
ONEWEB-0205             
1 48226U 21031S   23234.18828962  .00000074  00000+0  16397-3 0  9996
2 48226  87.9041 134.7298 0002220  74.8768 285.2607 13.14500822112968
ONEWEB-0206             
1 48227U 21031T   23235.15031075 -.00000348  00000+0 -97264-3 0  9994
2 48227  87.9034 134.5232 0001979  68.6391 291.4950 13.14501795113040
ONEWEB-0182             
1 48228U 21031U   23233.24105274  .00000103  00000+0  24308-3 0  9992
2 48228  87.8904 134.9705 0002081  72.7423 287.3935 13.14504138113009
ONEWEB-0186             
1 48229U 21031V   23235.08056192  .00000019  00000+0  17945-4 0  9997
2 48229  87.9038 134.5267 0002071  75.8607 284.2753 13.14503635113190
ONEWEB-0181             
1 48230U 21031W   23234.22000252 -.00000181  00000+0 -52389-3 0  9992
2 48230  87.9042 134.7688 0002106  78.8720 281.2646 13.14501324112936
ONEWEB-0188             
1 48231U 21031X   23235.09747843  .00000422  00000+0  11044-2 0  9991
2 48231  87.9042 134.5945 0002628  91.5653 268.5777 13.14502828112941
